{"type":"FeatureCollection","features":[{"type":"Feature","id":"NGA","properties":{"name":"Nigeria","source":"Natural Earth 1:10m (public domain)"},"geometry":{"type":"MultiPolygon","coordinates":[[[[7.3267,4.4496],[7.3267,4.4665],[7.3627,4.4834],[7.3987,4.5002],[7.4347,4.4834],[7.4707,4.4665],[7.5068,4.4834],[7.5428,4.4834],[7.5788,4.4834],[7.5788,4.4665],[7.5428,4.4496],[7.5068,4.4496],[7.4347,4.4327],[7.3627,4.4327],[7.3267,4.4496]]],[[[7.2907,4.5002],[7.3267,4.5002],[7.3267,4.4834],[7.3267,4.4665],[7.3267,4.4496],[7.3267,4.4327],[7.2907,4.4327],[7.2907,4.4158],[7.2907,4.3989],[7.2547,4.3989],[7.1827,4.382],[7.1467,4.382],[7.1467,4.3989],[7.1467,4.4158],[7.1827,4.4496],[7.2187,4.4834],[7.2187,4.5002],[7.2187,4.5171],[7.2187,4.534],[7.2547,4.5171],[7.2547,4.5002],[7.2907,4.5002]]],[[[12.7993,13.383],[12.7993,13.3661],[12.7993,13.383],[12.7993,13.3999],[12.8353,13.3999],[12.8353,13.4167],[12.8713,13.4505],[12.8713,13.4674],[12.8353,13.4843],[12.8713,13.4843],[12.8713,13.5012],[12.9073,13.4843],[12.9433,13.5012],[13.0153,13.5349],[13.0513,13.5518],[13.0873,13.5518],[13.0873,13.5349],[13.1233,13.5349],[13.1233,13.5181],[13.1233,13.5349],[13.1233,13.5518],[13.1593,13.5518],[13.1593,13.5349],[13.1593,13.5181],[13.1593,13.5349],[13.1953,13.5349],[13.2313,13.5518],[13.2313,13.5687],[13.2313,13.5856],[13.2673,13.5856],[13.2673,13.6025],[13.2673,13.6194],[13.2673,13.6363],[13.3033,13.67],[13.3033,13.6869],[13.3033,13.7038],[13.3393,13.7038],[13.3753,13.7207],[13.5914,13.7038],[13.8434,13.383],[14.0594,13.079],[14.1314,12.8088],[14.1674,12.5386],[14.1674,12.471],[14.1674,12.4542],[14.1674,12.4204],[14.1674,12.4035],[14.1674,12.3866],[14.2034,12.3697],[14.2034,12.3528],[14.4194,12.3528],[14.4914,12.336],[14.5275,12.3191],[14.5275,12.3022],[14.5275,12.2853],[14.5635,12.2684],[14.5635,12.2515],[14.5635,12.2346],[14.5995,12.2177],[14.5995,12.2009],[14.5995,12.184],[14.6355,12.184],[14.6355,12.2009],[14.6715,12.184],[14.6715,12.1671],[14.6355,12.1502],[14.6355,12.1333],[14.6355,12.1164],[14.6355,12.0489],[14.5995,12.032],[14.5995,12.0151],[14.6355,11.9644],[14.6355,11.9475],[14.6355,11.9138],[14.5995,11.88],[14.5995,11.7787],[14.5995,11.7618],[14.5635,11.7111],[14.5275,11.7111],[14.5275,11.6942],[14.5635,11.6942],[14.5635,11.6773],[14.5995,11.6773],[14.5995,11.6605],[14.5995,11.6436],[14.6355,11.6267],[14.6355,11.6098],[14.6355,11.576],[14.6355,11.5591],[14.5995,11.5422],[14.5995,11.5085],[14.5995,11.4916],[14.5635,11.4916],[14.5275,11.4747],[14.4914,11.4578],[14.4554,11.424],[14.4554,11.4072],[14.3834,11.3903],[14.2754,11.3058],[14.2394,11.2889],[14.2034,11.2552],[14.1674,11.2383],[14.1314,11.2383],[14.0594,11.2721],[14.0234,11.2721],[13.9874,11.2721],[13.9514,11.2383],[13.9154,11.2045],[13.8794,11.1707],[13.8434,11.1201],[13.8434,11.0863],[13.8074,11.0694],[13.7714,11.0525],[13.7714,11.0356],[13.7714,11.0187],[13.7354,11.0019],[13.7714,10.9512],[13.7354,10.9343],[13.5554,10.681],[13.5554,10.6134],[13.4833,10.4952],[13.4833,10.3095],[13.4473,10.2419],[13.4473,10.225],[13.4473,10.2082],[13.4473,10.1913],[13.4473,10.1575],[13.4113,10.1406],[13.4113,10.1237],[13.3753,10.1237],[13.3753,10.1068],[13.2673,10.0899],[13.2313,10.0731],[13.2313,10.0393],[13.2313,10.0224],[13.2313,9.9886],[13.2313,9.9717],[13.2313,9.9548],[13.2313,9.9211],[13.1953,9.8873],[13.1953,9.8704],[13.2313,9.8535],[13.2673,9.8197],[13.2673,9.8029],[13.2673,9.786],[13.2673,9.7691],[13.2313,9.7522],[13.2313,9.6846],[13.2313,9.6171],[13.1953,9.5495],[13.1233,9.5158],[13.0513,9.4989],[12.9793,9.482],[12.9793,9.4651],[12.9433,9.4313],[12.9433,9.4144],[12.9073,9.4144],[12.8713,9.3807],[12.8353,9.3638],[12.8713,9.3469],[12.9073,9.33],[12.9073,9.2962],[12.9073,9.2625],[12.9073,9.2456],[12.8713,9.2287],[12.8353,9.1443],[12.8353,9.0936],[12.8353,9.0598],[12.8353,9.026],[12.7993,8.8234],[12.7993,8.7896],[12.7633,8.7558],[12.7273,8.7558],[12.6913,8.7558],[12.6913,8.739],[12.6913,8.7052],[12.6913,8.6714],[12.6553,8.6545],[12.5473,8.6039],[12.5113,8.6039],[12.5113,8.6207],[12.4752,8.6207],[12.4392,8.6207],[12.4392,8.6039],[12.4032,8.6039],[12.3672,8.6039],[12.3672,8.587],[12.4032,8.5363],[12.4032,8.5194],[12.4032,8.5025],[12.4032,8.4856],[12.3672,8.4688],[12.3672,8.4519],[12.3312,8.435],[12.3312,8.4181],[12.2952,8.4181],[12.2592,8.435],[12.2592,8.4181],[12.2232,8.3843],[12.2232,8.3506],[12.2232,8.2999],[12.2232,8.2155],[12.2232,8.1986],[12.2232,8.1817],[12.1872,8.1141],[12.1872,8.0972],[12.1872,8.0466],[12.1872,8.0128],[12.1872,7.9959],[12.1872,7.979],[12.1872,7.9621],[12.1512,7.9284],[12.0432,7.7764],[12.0072,7.7257],[12.0072,7.6919],[12.0072,7.6751],[12.0072,7.6582],[12.0072,7.5906],[12.0072,7.5737],[12.0072,7.5568],[11.9712,7.5062],[11.8992,7.4555],[11.8272,7.388],[11.7912,7.3035],[11.7552,7.2867],[11.7552,7.2698],[11.7192,7.2698],[11.7552,7.2529],[11.7912,7.236],[11.8272,7.1684],[11.8632,7.1347],[11.8992,7.1009],[11.8632,7.084],[11.8632,7.0671],[11.8632,7.084],[11.8272,7.084],[11.7912,7.0671],[11.7552,7.0333],[11.7552,7.0165],[11.7552,6.9996],[11.7192,6.9996],[11.6832,6.9996],[11.6832,6.9827],[11.6832,6.9658],[11.6112,6.932],[11.5752,6.8814],[11.5392,6.8476],[11.5392,6.8307],[11.5392,6.8138],[11.5752,6.78],[11.5752,6.7631],[11.5752,6.7463],[11.5752,6.7125],[11.5392,6.6449],[11.5032,6.6112],[11.4671,6.5943],[11.4311,6.5943],[11.4311,6.5774],[11.3951,6.5436],[11.3951,6.4929],[11.3951,6.4761],[11.3591,6.4592],[11.3591,6.4423],[11.3231,6.4423],[11.2871,6.4423],[11.2511,6.4254],[11.2511,6.4423],[11.2151,6.4423],[11.1431,6.4254],[11.1071,6.4423],[11.0711,6.4929],[11.0711,6.5774],[11.0711,6.6112],[11.0711,6.6449],[11.0711,6.6956],[11.0351,6.7463],[10.9991,6.7631],[10.9271,6.78],[10.8911,6.8138],[10.8551,6.8645],[10.8551,6.8982],[10.8191,6.9489],[10.7831,6.9658],[10.7111,6.9996],[10.6391,7.0333],[10.6031,7.0502],[10.6031,7.1009],[10.5671,7.1347],[10.5671,7.1009],[10.5671,7.0671],[10.5311,7.0333],[10.5311,6.9489],[10.495,6.932],[10.495,6.9151],[10.495,6.8982],[10.495,6.8814],[10.243,6.8645],[10.207,6.8814],[10.207,6.8982],[10.171,6.9151],[10.171,6.9827],[10.171,6.9996],[10.135,6.9996],[9.883,6.78],[9.847,6.78],[9.811,6.7969],[9.775,6.7969],[9.775,6.78],[9.703,6.5267],[9.667,6.5267],[9.631,6.5267],[9.595,6.5098],[9.559,6.4592],[9.559,6.4423],[9.523,6.4254],[9.4869,6.4254],[9.4869,6.4085],[9.4509,6.3916],[9.4149,6.341],[9.3789,6.3241],[9.3429,6.3241],[9.3429,6.3072],[9.3429,6.2903],[9.3069,6.2396],[9.2709,6.2059],[9.1269,6.0877],[9.0549,6.0032],[9.0189,5.9694],[9.0189,5.9526],[8.9829,5.9357],[8.9829,5.9019],[8.9469,5.9019],[8.9109,5.9019],[8.9109,5.885],[8.8749,5.8681],[8.8389,5.8512],[8.8389,5.8343],[8.8389,5.8175],[8.8749,5.8006],[8.8749,5.7837],[8.8749,5.7499],[8.8389,5.733],[8.8389,5.7161],[8.8029,5.6992],[8.8389,5.6824],[8.8389,5.6655],[8.8749,5.6486],[8.9109,5.6148],[8.9109,5.5979],[8.9109,5.5641],[8.8749,5.5473],[8.8749,5.5304],[8.8389,5.5135],[8.8389,5.4966],[8.8389,5.4797],[8.8389,5.4459],[8.8389,5.429],[8.8389,5.4122],[8.8389,5.3615],[8.8029,5.3446],[8.8029,5.3277],[8.8389,5.3108],[8.8389,5.294],[8.8029,5.1589],[8.8029,5.142],[8.7669,5.142],[8.7309,5.1251],[8.7309,5.0913],[8.7309,5.0744],[8.6949,5.0406],[8.6949,5.0238],[8.6949,4.99],[8.6589,4.9393],[8.6229,4.9224],[8.6229,4.8887],[8.5869,4.8887],[8.6229,4.8549],[8.6229,4.838],[8.5869,4.8211],[8.5509,4.8211],[8.5509,4.8042],[8.5509,4.7873],[8.5509,4.7704],[8.5149,4.7536],[8.5509,4.7367],[8.5509,4.7198],[8.5149,4.7029],[8.4788,4.7029],[8.4788,4.7198],[8.4788,4.7367],[8.4788,4.7536],[8.4428,4.7367],[8.4068,4.7536],[8.4068,4.7704],[8.4068,4.8042],[8.4068,4.8549],[8.4068,4.8211],[8.3708,4.8042],[8.3348,4.8211],[8.3348,4.838],[8.2988,4.8549],[8.2988,4.8718],[8.2988,4.8887],[8.2628,4.9055],[8.2628,4.9224],[8.2268,4.9393],[8.2268,4.9562],[8.1908,4.9562],[8.1908,4.9731],[8.1908,4.99],[8.2268,4.9393],[8.2268,4.9224],[8.2628,4.8718],[8.2628,4.838],[8.2628,4.8211],[8.2628,4.8042],[8.2988,4.7873],[8.2988,4.7704],[8.3348,4.7367],[8.3348,4.7198],[8.3348,4.686],[8.3348,4.6691],[8.3348,4.6522],[8.3708,4.6522],[8.3708,4.6185],[8.3348,4.6185],[8.3348,4.6016],[8.2988,4.5847],[8.2988,4.5509],[8.2628,4.5509],[8.2268,4.5509],[8.1908,4.5509],[8.0828,4.5509],[8.0468,4.5678],[8.0468,4.5509],[8.0108,4.534],[7.9748,4.534],[7.9388,4.534],[7.7588,4.5171],[7.7588,4.534],[7.7228,4.5171],[7.7588,4.5171],[7.7588,4.5002],[7.7228,4.5002],[7.6868,4.5002],[7.6508,4.5171],[7.5428,4.5171],[7.5788,4.534],[7.5428,4.5509],[7.5428,4.534],[7.5428,4.5509],[7.5428,4.5678],[7.5428,4.5847],[7.5428,4.6016],[7.5428,4.6185],[7.5428,4.6353],[7.5428,4.6691],[7.5428,4.7029],[7.5068,4.686],[7.5068,4.6691],[7.5068,4.6522],[7.5068,4.6353],[7.5068,4.6185],[7.5428,4.6016],[7.5068,4.5847],[7.5068,4.5678],[7.4707,4.5678],[7.4707,4.5509],[7.4347,4.5509],[7.3987,4.5678],[7.3627,4.5678],[7.3627,4.5847],[7.3267,4.5847],[7.3267,4.6016],[7.2907,4.6016],[7.2907,4.5847],[7.2547,4.5847],[7.2547,4.5678],[7.2907,4.5678],[7.2547,4.5678],[7.2907,4.5509],[7.2907,4.534],[7.3267,4.534],[7.3267,4.5171],[7.2907,4.5002],[7.2907,4.5171],[7.2547,4.5509],[7.1827,4.6185],[7.1827,4.6353],[7.1827,4.6522],[7.1827,4.6691],[7.1467,4.6691],[7.1107,4.6691],[7.1107,4.686],[7.1107,4.7029],[7.0747,4.7367],[7.0747,4.7536],[7.0747,4.7367],[7.0747,4.7198],[7.0747,4.7029],[7.0747,4.6691],[7.1107,4.6691],[7.1107,4.6522],[7.1467,4.6353],[7.1827,4.6016],[7.1827,4.5678],[7.1467,4.5678],[7.1467,4.5509],[7.1827,4.534],[7.1827,4.5171],[7.1827,4.5002],[7.1467,4.4665],[7.1107,4.4665],[7.1107,4.4496],[7.1107,4.4665],[7.0747,4.4665],[7.0747,4.4834],[7.0747,4.5002],[7.0747,4.4834],[7.0747,4.4665],[7.0747,4.4496],[7.0387,4.4327],[7.0387,4.4665],[7.0387,4.4834],[7.0387,4.534],[7.0027,4.5678],[7.0027,4.5847],[7.0027,4.6016],[7.0387,4.6185],[7.0387,4.6353],[7.0387,4.6522],[7.0387,4.6353],[7.0387,4.6522],[7.0027,4.6691],[7.0027,4.686],[7.0027,4.7029],[7.0027,4.7198],[7.0027,4.686],[6.9667,4.686],[6.9667,4.7029],[6.9667,4.7367],[6.9667,4.7198],[6.9667,4.686],[6.9667,4.6691],[7.0027,4.6016],[6.9667,4.6016],[6.9667,4.6185],[6.9307,4.6353],[6.9307,4.6522],[6.8947,4.686],[6.8947,4.6691],[6.8947,4.6522],[6.9307,4.6353],[6.9307,4.6185],[6.9307,4.6016],[6.9307,4.5847],[6.9307,4.5678],[6.9307,4.5847],[6.9667,4.6016],[6.9667,4.5847],[6.9667,4.5002],[6.9667,4.4834],[7.0027,4.4158],[7.0387,4.3989],[7.0387,4.382],[7.0027,4.382],[6.9667,4.382],[6.9307,4.382],[6.9307,4.3989],[6.8947,4.3989],[6.8947,4.382],[6.8587,4.3989],[6.8587,4.4158],[6.8587,4.4327],[6.8587,4.4496],[6.8587,4.4665],[6.8227,4.4834],[6.8227,4.5171],[6.8227,4.5509],[6.8227,4.5678],[6.8227,4.5847],[6.8587,4.6016],[6.8587,4.6185],[6.8587,4.6353],[6.8227,4.6353],[6.7867,4.6522],[6.7867,4.686],[6.7867,4.7367],[6.7507,4.7704],[6.7867,4.7873],[6.7867,4.8042],[6.7867,4.8211],[6.7507,4.8042],[6.7507,4.8211],[6.7507,4.838],[6.7507,4.8211],[6.7147,4.838],[6.7147,4.8211],[6.7147,4.8042],[6.7147,4.7873],[6.7507,4.7873],[6.7507,4.7704],[6.7507,4.7536],[6.7507,4.7198],[6.7507,4.686],[6.7867,4.6691],[6.7867,4.6522],[6.8227,4.6353],[6.8227,4.6016],[6.7867,4.5847],[6.7867,4.5678],[6.8227,4.4665],[6.8227,4.4327],[6.8227,4.4158],[6.8227,4.3989],[6.8587,4.382],[6.8587,4.3651],[6.8587,4.3483],[6.8227,4.3483],[6.7867,4.3314],[6.7507,4.3483],[6.7147,4.3483],[6.7147,4.3651],[6.7147,4.4327],[6.7147,4.4496],[6.7147,4.5002],[6.7507,4.5678],[6.7507,4.5847],[6.7507,4.6016],[6.7147,4.5847],[6.7147,4.5509],[6.6787,4.5002],[6.7147,4.4665],[6.7147,4.4496],[6.7147,4.4327],[6.6787,4.4158],[6.6787,4.4496],[6.6787,4.4665],[6.6787,4.5171],[6.6787,4.534],[6.6787,4.5171],[6.6427,4.5171],[6.6427,4.5002],[6.6427,4.4496],[6.6787,4.4327],[6.6787,4.4158],[6.6787,4.3989],[6.6787,4.3651],[6.6787,4.3483],[6.6787,4.3314],[6.6427,4.3314],[6.6067,4.3314],[6.6067,4.3651],[6.6067,4.3989],[6.6067,4.4496],[6.6067,4.4834],[6.5707,4.5002],[6.5347,4.5002],[6.5707,4.4834],[6.5707,4.4496],[6.5707,4.3989],[6.5707,4.3651],[6.5707,4.3314],[6.5347,4.3314],[6.4626,4.3314],[6.4266,4.3483],[6.3906,4.3483],[6.4266,4.3145],[6.3906,4.3145],[6.3546,4.3145],[6.3186,4.2976],[6.2826,4.2976],[6.2466,4.3145],[6.2826,4.3651],[6.3186,4.4327],[6.2826,4.4327],[6.2466,4.3989],[6.2466,4.4496],[6.2466,4.5002],[6.2466,4.4834],[6.2466,4.4496],[6.2466,4.4327],[6.2466,4.4158],[6.2466,4.4327],[6.2106,4.4327],[6.2106,4.4496],[6.2106,4.4158],[6.2106,4.3989],[6.2466,4.382],[6.2466,4.3651],[6.2106,4.3483],[6.2106,4.3314],[6.2106,4.3145],[6.2106,4.2976],[6.1746,4.2807],[6.1386,4.2807],[6.1026,4.2807],[6.1026,4.2638],[6.1026,4.2807],[6.0666,4.2976],[6.1026,4.3145],[6.1026,4.3314],[6.1026,4.3651],[6.1026,4.382],[6.1026,4.3651],[6.1026,4.382],[6.1026,4.4158],[6.0666,4.4158],[6.0306,4.4158],[6.0306,4.3989],[6.0306,4.382],[6.0666,4.3651],[6.0306,4.3483],[6.0666,4.3483],[6.0666,4.3314],[6.0666,4.3145],[6.0666,4.2976],[6.0306,4.3145],[5.9946,4.3145],[5.9946,4.3483],[5.9946,4.3651],[5.9946,4.382],[5.9946,4.3989],[5.9946,4.4158],[5.9586,4.382],[5.9586,4.3989],[5.9586,4.3651],[5.9586,4.3483],[5.9586,4.3314],[5.9226,4.3483],[5.9226,4.3651],[5.8866,4.3651],[5.8506,4.382],[5.8506,4.4158],[5.8506,4.4327],[5.8506,4.4158],[5.8146,4.4327],[5.7786,4.4496],[5.7786,4.4665],[5.8146,4.4496],[5.7786,4.4665],[5.7786,4.4834],[5.7426,4.4834],[5.7426,4.5002],[5.7066,4.5171],[5.7066,4.5509],[5.6706,4.5509],[5.5986,4.6353],[5.5626,4.6691],[5.5626,4.7198],[5.5626,4.7029],[5.5626,4.7367],[5.5266,4.7536],[5.5266,4.7704],[5.5266,4.7873],[5.4905,4.838],[5.4905,4.8549],[5.5266,4.8211],[5.4905,4.8549],[5.4545,4.8887],[5.4545,4.9562],[5.4185,5.0069],[5.4185,5.0238],[5.4185,5.0575],[5.4185,5.0744],[5.4185,5.0913],[5.3825,5.0913],[5.3825,5.1082],[5.3825,5.1251],[5.3825,5.142],[5.4185,5.142],[5.4545,5.1251],[5.4545,5.1082],[5.4905,5.0913],[5.4545,5.142],[5.4905,5.142],[5.4905,5.1589],[5.4545,5.1757],[5.4545,5.1926],[5.4545,5.1757],[5.4545,5.1589],[5.4185,5.1589],[5.3825,5.1589],[5.3465,5.1757],[5.3825,5.2095],[5.3465,5.2602],[5.3465,5.3446],[5.3465,5.3615],[5.3825,5.3615],[5.4185,5.3615],[5.4545,5.3615],[5.4545,5.3446],[5.4905,5.3446],[5.4905,5.3615],[5.4905,5.3784],[5.5266,5.3784],[5.5626,5.3953],[5.5626,5.3784],[5.5626,5.3953],[5.5626,5.4122],[5.5266,5.429],[5.5266,5.4459],[5.5266,5.4628],[5.5266,5.4797],[5.5266,5.4966],[5.5626,5.4966],[5.5986,5.4966],[5.6346,5.5135],[5.6346,5.5473],[5.6346,5.5304],[5.5986,5.5135],[5.5626,5.5135],[5.5266,5.5135],[5.5266,5.4966],[5.4905,5.4797],[5.5266,5.4459],[5.4905,5.429],[5.4905,5.4122],[5.4545,5.4122],[5.4545,5.429],[5.4185,5.429],[5.4185,5.4122],[5.4185,5.3953],[5.3825,5.3953],[5.2745,5.429],[5.2745,5.4459],[5.2385,5.4459],[5.2385,5.4628],[5.2025,5.4797],[5.2025,5.4966],[5.2025,5.5304],[5.2025,5.5473],[5.2025,5.5641],[5.2025,5.581],[5.2385,5.581],[5.3105,5.581],[5.3825,5.5641],[5.4185,5.581],[5.4185,5.6148],[5.4545,5.6317],[5.4545,5.6148],[5.4905,5.6148],[5.4905,5.581],[5.5266,5.5979],[5.4905,5.6148],[5.4905,5.6317],[5.4545,5.6486],[5.4185,5.6486],[5.4185,5.6148],[5.3825,5.5979],[5.3465,5.5979],[5.3105,5.5979],[5.3105,5.6148],[5.3105,5.6317],[5.3465,5.6992],[5.3465,5.7161],[5.3105,5.6486],[5.3105,5.6317],[5.2745,5.6148],[5.2385,5.6148],[5.2385,5.5979],[5.2025,5.5979],[5.1665,5.581],[5.1665,5.5979],[5.1305,5.6148],[5.1305,5.6317],[5.1305,5.6486],[5.0945,5.6824],[5.0945,5.6992],[5.0945,5.7161],[5.0945,5.733],[5.0945,5.7499],[5.0945,5.7668],[5.0945,5.8006],[5.1305,5.8006],[5.1305,5.7837],[5.1665,5.7837],[5.1665,5.8006],[5.1665,5.8175],[5.2025,5.8343],[5.2745,5.8681],[5.2745,5.9019],[5.2385,5.8681],[5.2025,5.8681],[5.1305,5.8175],[5.0945,5.8175],[5.0585,5.7668],[5.0225,5.8512],[4.8785,6.0032],[4.8785,6.0201],[4.8425,6.037],[4.8065,6.0708],[4.7705,6.1045],[4.7345,6.1383],[4.7345,6.1552],[4.6265,6.2059],[4.6265,6.2396],[4.5545,6.2903],[4.5185,6.3072],[4.4824,6.3241],[4.4104,6.3578],[4.3384,6.3747],[4.1224,6.4085],[3.8704,6.4254],[3.4383,6.4085],[3.4023,6.4254],[3.4023,6.4423],[3.4023,6.4592],[3.4023,6.4423],[3.4383,6.4592],[3.4383,6.4423],[3.4383,6.4254],[3.4743,6.4592],[3.4743,6.4423],[3.5104,6.4423],[3.5104,6.4592],[3.5464,6.4592],[3.5824,6.4761],[3.5824,6.4929],[3.5824,6.5098],[3.6184,6.5098],[3.6544,6.5098],[3.6904,6.5267],[3.7264,6.5436],[3.7624,6.5605],[3.7624,6.5774],[3.7624,6.5943],[3.8704,6.5943],[3.8344,6.6112],[3.7624,6.628],[3.7264,6.5943],[3.6544,6.5774],[3.6184,6.5605],[3.5824,6.5605],[3.5464,6.5267],[3.5104,6.5267],[3.4743,6.5267],[3.4743,6.5436],[3.4743,6.5605],[3.4743,6.5943],[3.4383,6.5774],[3.4383,6.5605],[3.4023,6.5605],[3.4023,6.5436],[3.4023,6.5267],[3.4023,6.5098],[3.4023,6.4761],[3.3663,6.4592],[3.3663,6.4423],[3.3663,6.4254],[3.4023,6.4254],[3.4023,6.3916],[3.3303,6.3916],[3.2223,6.3916],[3.0783,6.3747],[2.9343,6.3916],[2.7183,6.3747],[2.7183,6.4254],[2.7183,6.4761],[2.7183,6.4929],[2.7183,6.5098],[2.7543,6.5605],[2.7543,6.5774],[2.7183,6.628],[2.7183,6.6449],[2.7543,6.6618],[2.7543,6.6787],[2.7903,6.6956],[2.7903,6.7463],[2.7903,6.7631],[2.7543,6.7631],[2.7183,6.78],[2.7183,6.7969],[2.7183,6.8138],[2.7543,6.8645],[2.7183,6.8982],[2.7183,6.9489],[2.7183,6.9827],[2.7543,7.0165],[2.7543,7.0333],[2.7903,7.0333],[2.7903,7.0502],[2.7543,7.0671],[2.7543,7.084],[2.7183,7.1009],[2.7543,7.1009],[2.7543,7.1178],[2.7543,7.1347],[2.7543,7.1516],[2.7543,7.1684],[2.7543,7.4049],[2.7543,7.4217],[2.7903,7.4217],[2.7903,7.4386],[2.7903,7.4724],[2.7543,7.5062],[2.7543,7.5568],[2.7183,7.5906],[2.7183,7.6244],[2.7183,7.6582],[2.7183,7.7933],[2.7183,7.8102],[2.7183,7.827],[2.6823,7.8439],[2.6823,7.8777],[2.6823,7.8946],[2.6823,7.9115],[2.6823,7.9284],[2.6823,7.9959],[2.7183,8.0635],[2.7183,8.1141],[2.7183,8.131],[2.7183,8.1479],[2.7183,8.1648],[2.7183,8.1817],[2.7183,8.2155],[2.7183,8.2323],[2.7183,8.283],[2.7183,8.2999],[2.6823,8.3168],[2.6823,8.3337],[2.7183,8.3843],[2.7183,8.4012],[2.7183,8.4181],[2.7183,8.435],[2.7183,8.4519],[2.7543,8.4688],[2.7543,8.5025],[2.7543,8.5194],[2.7183,8.7727],[2.7183,8.7896],[2.7543,8.8065],[2.7543,8.8234],[2.7543,8.8403],[2.7543,8.8572],[2.7543,8.8741],[2.7543,8.8909],[2.7543,8.9078],[2.7543,8.9247],[2.7543,8.9416],[2.7543,8.9754],[2.7903,9.026],[2.7543,9.0598],[2.8623,9.0429],[2.8623,9.0598],[2.8623,9.0767],[2.8983,9.0767],[2.9343,9.0767],[2.9703,9.0598],[3.0423,9.0767],[3.0783,9.0936],[3.0783,9.1274],[3.1143,9.2287],[3.1503,9.2625],[3.1503,9.2962],[3.1503,9.3469],[3.1503,9.3638],[3.1503,9.3976],[3.1143,9.4313],[3.1503,9.4651],[3.1503,9.482],[3.1503,9.4989],[3.1863,9.4989],[3.2583,9.5833],[3.2223,9.6002],[3.2223,9.6171],[3.2583,9.634],[3.2943,9.634],[3.3303,9.6509],[3.3303,9.6846],[3.3303,9.7015],[3.3303,9.7353],[3.3303,9.7522],[3.3303,9.786],[3.3303,9.8029],[3.3303,9.8197],[3.4023,9.8366],[3.4383,9.8535],[3.5104,9.8535],[3.5464,9.8704],[3.5464,9.9042],[3.5824,9.9548],[3.5824,9.9717],[3.6184,10.0562],[3.6184,10.0731],[3.6184,10.0899],[3.6544,10.0899],[3.6544,10.1068],[3.6544,10.1237],[3.6544,10.1406],[3.6544,10.1575],[3.6544,10.1744],[3.5824,10.2419],[3.5824,10.2588],[3.5824,10.2926],[3.5824,10.3264],[3.6184,10.377],[3.6184,10.3939],[3.6184,10.4108],[3.6544,10.4277],[3.6544,10.4446],[3.6904,10.4446],[3.7624,10.4108],[3.7984,10.4277],[3.7984,10.4446],[3.7984,10.4952],[3.7984,10.529],[3.8344,10.5797],[3.8344,10.5966],[3.8344,10.6303],[3.8344,10.6472],[3.8344,10.681],[3.8344,10.6979],[3.7984,10.7148],[3.7624,10.7317],[3.7624,10.7654],[3.7624,10.7823],[3.7264,10.7823],[3.7264,10.7992],[3.7264,10.8161],[3.7264,10.833],[3.7624,10.8836],[3.7624,10.9005],[3.7264,11.0019],[3.7264,11.0187],[3.7264,11.0356],[3.7264,11.0525],[3.7264,11.0694],[3.7264,11.1201],[3.6904,11.1201],[3.6544,11.137],[3.4743,11.3903],[3.4743,11.424],[3.4743,11.4409],[3.4743,11.4916],[3.5104,11.5085],[3.5104,11.5591],[3.5824,11.6773],[3.5824,11.6942],[3.6544,11.728],[3.6544,11.7449],[3.6544,11.7618],[3.6544,11.7787],[3.6544,11.7956],[3.6184,11.8293],[3.6184,11.8462],[3.6184,11.9138],[3.6184,11.9307],[3.6544,11.9475],[3.6544,11.9813],[3.6544,12.0151],[3.6184,12.0995],[3.6184,12.1333],[3.6544,12.2684],[3.6544,12.5217],[3.8704,12.6906],[3.9424,12.7581],[4.0864,12.9946],[4.1224,13.2141],[4.1224,13.231],[4.1224,13.4674],[4.1944,13.4674],[4.2304,13.4843],[4.2664,13.5012],[4.4104,13.6363],[4.4464,13.67],[4.5185,13.6869],[4.6265,13.7207],[4.8425,13.7714],[4.8785,13.7714],[4.9145,13.7376],[4.9865,13.7376],[5.0945,13.7545],[5.2385,13.7376],[5.2745,13.7545],[5.3105,13.7714],[5.3105,13.7883],[5.3465,13.822],[5.3465,13.8389],[5.3825,13.8558],[5.5266,13.8727],[5.5626,13.8727],[5.8506,13.7714],[6.1026,13.6532],[6.1386,13.6532],[6.1386,13.6363],[6.2106,13.67],[6.2466,13.6869],[6.2826,13.67],[6.3186,13.67],[6.3546,13.6194],[6.4986,13.5012],[6.6787,13.3154],[6.7507,13.1803],[6.7867,13.1297],[6.8227,13.0621],[6.8587,13.0283],[6.8947,13.0114],[6.9307,12.9946],[6.9667,12.9946],[7.0387,12.9946],[7.0747,12.9946],[7.0747,13.0114],[7.1467,13.0452],[7.1827,13.1128],[7.2187,13.1297],[7.3267,13.0959],[7.3627,13.0959],[7.3987,13.1128],[7.7588,13.3323],[7.7948,13.3492],[7.8308,13.3492],[8.0828,13.3154],[8.1188,13.2985],[8.1548,13.2648],[8.1548,13.2479],[8.1908,13.231],[8.2268,13.2141],[8.2628,13.2141],[8.2628,13.1972],[8.2988,13.1634],[8.4068,13.079],[8.4068,13.0621],[8.4428,13.079],[8.4788,13.079],[8.5149,13.079],[8.5509,13.0621],[8.5869,13.0283],[8.5869,13.0114],[8.6229,12.9608],[8.6589,12.9439],[8.6949,12.927],[8.9469,12.8426],[8.9829,12.8426],[9.2709,12.8088],[9.3069,12.8088],[9.3429,12.8257],[9.3789,12.8257],[9.595,12.8088],[9.631,12.8088],[9.631,12.8257],[9.811,13.0283],[9.847,13.0621],[9.883,13.079],[9.919,13.0959],[9.919,13.1128],[9.919,13.1297],[9.919,13.1465],[10.135,13.2479],[10.171,13.2648],[10.6391,13.3661],[10.6751,13.383],[10.7831,13.383],[10.9631,13.3661],[11.4311,13.3661],[11.7552,13.2816],[11.8632,13.2479],[12.0072,13.1634],[12.0432,13.1297],[12.0432,13.1128],[12.1152,13.0959],[12.1512,13.1128],[12.1872,13.1297],[12.2592,13.1128],[12.2592,13.0959],[12.2592,13.079],[12.2952,13.079],[12.2952,13.0959],[12.3312,13.079],[12.3672,13.079],[12.4032,13.079],[12.4392,13.079],[12.4392,13.0621],[12.4752,13.0621],[12.4752,13.079],[12.5113,13.1297],[12.5113,13.1465],[12.5473,13.1465],[12.5473,13.1634],[12.5473,13.1803],[12.5473,13.1972],[12.5473,13.2141],[12.5473,13.231],[12.5473,13.2479],[12.5833,13.2816],[12.6193,13.2816],[12.6193,13.2985],[12.6193,13.3154],[12.6553,13.2985],[12.6553,13.2816],[12.6913,13.2816],[12.6913,13.3154],[12.7273,13.3154],[12.7273,13.3323],[12.7633,13.3661],[12.7633,13.383],[12.7993,13.383]]]]}}]}